NORAD_CAT_ID,OBJECT_NAME,OBJECT_TYPE,EPOCH,MEAN_MOTION,ECCENTRICITY,INCLINATION,RA_OF_ASC_NODE,ARG_OF_PERICENTER,MEAN_ANOMALY,BSTAR,MEAN_MOTION_DOT,MEAN_MOTION_DDOT,TLE_LINE0,TLE_LINE1,TLE_LINE2,SEMIMAJOR_AXIS,PERIOD,APOGEE,PERIGEE,DECAYED
52335.0,STARLINK-3814,PAYLOAD,2023-06-16 12:40:50,15.08843729,0.0001235,53.2175,5.551,98.2343,261.879,0.00016708,2.372e-05,0.0,0 STARLINK-3814,1 52335U 22045E   23167.52836629  .00002372  00000-0  16708-3 0  9990,2 52335  53.2175   5.5510 0001235  98.2343 261.8790 15.08843729 65101,6917.869,95.437,540.588,538.88,0.0
52335.0,STARLINK-3814,PAYLOAD,2023-06-16 17:26:59,15.08847989,0.0001075,53.2178,4.6594,91.058,269.0536,0.00018334,2.632e-05,0.0,0 STARLINK-3814,1 52335U 22045E   23167.72708255  .00002632  00000-0  18334-3 0  9991,2 52335  53.2178   4.6594 0001075  91.0580 269.0536 15.08847989 65135,6917.856,95.437,540.465,538.977,0.0
52335.0,STARLINK-3814,PAYLOAD,2023-06-16 23:48:31,15.08861086,0.0001173,53.2172,3.4695,91.0992,269.0135,0.00036334,5.503e-05,0.0,0 STARLINK-3814,1 52335U 22045E   23167.99203642  .00005503  00000-0  36334-3 0  9990,2 52335  53.2172   3.4695 0001173  91.0992 269.0135 15.08861086 65177,6917.816,95.436,540.492,538.869,0.0
52335.0,STARLINK-3814,PAYLOAD,2023-06-17 06:10:05,15.0883765,0.0001632,53.2164,2.28,77.4276,282.6898,-4.9549e-05,-1.076e-05,0.0,0 STARLINK-3814,1 52335U 22045E   23168.25700796 -.00001076  00000-0 -49549-4 0  9998,2 52335  53.2164   2.2800 0001632  77.4276 282.6898 15.08837650 65218,6917.888,95.438,540.882,538.624,0.0
52335.0,STARLINK-3814,PAYLOAD,2023-06-17 18:53:10,15.08831599,0.0001926,53.2169,359.9005,74.734,285.3865,-0.00017356,-3.049e-05,0.0,0 STARLINK-3814,1 52335U 22045E   23168.78693218 -.00003049  00000-0 -17356-3 0  9998,2 52335  53.2169 359.9005 0001926  74.7340 285.3865 15.08831599 65298,6917.906,95.438,541.103,538.439,0.0
52335.0,STARLINK-3814,PAYLOAD,2023-06-17 22:03:57,15.08817361,0.0001354,53.2176,359.3066,72.2688,287.8452,-0.00039723,-6.6e-05,0.0,0 STARLINK-3814,1 52335U 22045E   23168.91941846 -.00006600  00000-0 -39723-3 0  9994,2 52335  53.2176 359.3066 0001354  72.2688 287.8452 15.08817361 65313,6917.95,95.439,540.751,538.878,0.0
52335.0,STARLINK-3814,PAYLOAD,2023-06-18 06:00:53,15.08832814,0.0001129,53.2181,357.8199,79.0728,281.0391,-7.4046e-05,-1.466e-05,0.0,0 STARLINK-3814,1 52335U 22045E   23169.25061713 -.00001466  00000-0 -74046-4 0  9991,2 52335  53.2181 357.8199 0001129  79.0728 281.0391 15.08832814 65362,6917.902,95.438,540.548,538.986,0.0
52335.0,STARLINK-3814,PAYLOAD,2023-06-18 12:22:25,15.08834032,0.0001035,53.2181,356.6293,80.7552,279.3557,3.3983e-05,2.53e-06,0.0,0 STARLINK-3814,1 52335U 22045E   23169.51557793  .00000253  00000-0  33983-4 0  9994,2 52335  53.2181 356.6293 0001035  80.7552 279.3557 15.08834032 65407,6917.899,95.438,540.48,539.048,0.0
52335.0,STARLINK-3814,PAYLOAD,2023-06-18 18:43:58,15.0884479,0.0001164,53.2173,355.4409,77.0114,283.1008,0.0001629,2.306e-05,0.0,0 STARLINK-3814,1 52335U 22045E   23169.78053407  .00002306  00000-0  16290-3 0  9998,2 52335  53.2173 355.4409 0001164  77.0114 283.1008 15.08844790 65440,6917.866,95.437,540.536,538.926,0.0
52335.0,STARLINK-3814,PAYLOAD,2023-06-19 05:51:40,15.08844012,0.0001148,53.217,353.3591,71.4212,288.6905,0.00050735,7.797e-05,0.0,0 STARLINK-3814,1 52335U 22045E   23170.24421841  .00007797  00000-0  50735-3 0  9993,2 52335  53.2170 353.3591 0001148  71.4212 288.6905 15.08844012 65516,6917.868,95.437,540.527,538.939,0.0
52335.0,STARLINK-3814,PAYLOAD,2023-06-19 18:34:45,15.08861737,0.0001155,53.2171,350.98,70.3671,289.7445,0.00069549,0.00010805,0.0,0 STARLINK-3814,1 52335U 22045E   23170.77413232  .00010805  00000-0  69549-3 0  9993,2 52335  53.2171 350.9800 0001155  70.3671 289.7445 15.08861737 65590,6917.814,95.436,540.478,538.88,0.0
52335.0,STARLINK-3814,PAYLOAD,2023-06-20 16:50:08,15.08850428,0.0001178,53.2178,346.8148,103.1472,256.9651,0.00036786,5.573e-05,0.0,0 STARLINK-3814,1 52335U 22045E   23171.70149094  .00005573  00000-0  36786-3 0  9992,2 52335  53.2178 346.8148 0001178 103.1472 256.9651 15.08850428 65731,6917.849,95.437,540.528,538.899,0.0
52335.0,STARLINK-3814,PAYLOAD,2023-06-20 18:25:32,15.08849226,0.0001143,53.2178,346.5174,65.302,294.8091,0.00028236,4.21e-05,0.0,0 STARLINK-3814,1 52335U 22045E   23171.76773233  .00004210  00000-0  28236-3 0  9994,2 52335  53.2178 346.5174 0001143  65.3020 294.8091 15.08849226 65741,6917.852,95.437,540.508,538.926,0.0
52335.0,STARLINK-3814,PAYLOAD,2023-06-20 23:11:41,15.08851416,0.0001161,53.2181,345.6266,66.8873,293.2242,0.00032627,4.91e-05,0.0,0 STARLINK-3814,1 52335U 22045E   23171.96645080  .00004910  00000-0  32627-3 0  9990,2 52335  53.2181 345.6266 0001161  66.8873 293.2242 15.08851416 65777,6917.845,95.437,540.514,538.907,0.0
52335.0,STARLINK-3814,PAYLOAD,2023-06-21 18:16:19,15.0884186,0.0001138,53.2175,342.0604,81.9123,278.1998,0.00014342,1.996e-05,0.0,0 STARLINK-3814,1 52335U 22045E   23172.76133263  .00001996  00000-0  14342-3 0  9999,2 52335  53.2175 342.0604 0001138  81.9123 278.1998 15.08841860 65892,6917.875,95.437,540.527,538.952,0.0
52335.0,STARLINK-3814,PAYLOAD,2023-06-23 11:36:21,15.08837062,0.000112,53.2194,334.3306,89.6547,270.4574,9.1209e-05,1.164e-05,0.0,0 STARLINK-3814,1 52335U 22045E   23174.48357994  .00001164  00000-0  91209-4 0  9994,2 52335  53.2194 334.3306 0001120  89.6547 270.4574 15.08837062 66156,6917.889,95.438,540.529,538.98,0.0
52335.0,STARLINK-3814,PAYLOAD,2023-06-24 16:13:17,15.08844814,9.52e-05,53.2184,328.9769,86.0751,274.0351,0.00015483,2.178e-05,0.0,0 STARLINK-3814,1 52335U 22045E   23175.67589707  .00002178  00000-0  15483-3 0  9990,2 52335  53.2184 328.9769 0000952  86.0751 274.0351 15.08844814 66333,6917.866,95.437,540.389,539.072,0.0
52335.0,STARLINK-3814,PAYLOAD,2023-06-25 03:20:59,15.08830907,8.96e-05,53.2172,326.8942,93.5273,266.5822,-0.0001381,-2.484e-05,0.0,0 STARLINK-3814,1 52335U 22045E   23176.13958107 -.00002484  00000-0 -13810-3 0  9990,2 52335  53.2172 326.8942 0000896  93.5273 266.5822 15.08830907 66404,6917.908,95.438,540.393,539.153,0.0
52335.0,STARLINK-3814,PAYLOAD,2023-06-25 16:04:04,15.08844801,9.15e-05,53.2177,324.5154,88.3694,271.7403,0.00022785,3.341e-05,0.0,0 STARLINK-3814,1 52335U 22045E   23176.66949835  .00003341  00000-0  22785-3 0  9998,2 52335  53.2177 324.5154 0000915  88.3694 271.7403 15.08844801 66489,6917.866,95.437,540.364,539.098,0.0
52335.0,STARLINK-3814,PAYLOAD,2023-06-26 09:33:19,15.08839276,0.000102,53.2166,321.2475,80.5982,279.5126,0.00014412,2.007e-05,0.0,0 STARLINK-3814,1 52335U 22045E   23177.39814035  .00002007  00000-0  14412-3 0  9998,2 52335  53.2166 321.2475 0001020  80.5982 279.5126 15.08839276 66599,6917.883,95.438,540.453,539.042,0.0
52335.0,STARLINK-3814,PAYLOAD,2023-06-27 12:34:52,15.08837597,0.0001278,53.2175,316.1921,82.8249,277.2888,0.00011381,1.524e-05,0.0,0 STARLINK-3814,1 52335U 22045E   23178.52422450  .00001524  00000-0  11381-3 0  9995,2 52335  53.2175 316.1921 0001278  82.8249 277.2888 15.08837597 66767,6917.888,95.438,540.637,538.869,0.0
52335.0,STARLINK-3814,PAYLOAD,2023-06-28 14:01:03,15.08839523,0.0001124,53.2175,311.4325,94.5461,265.566,0.00012363,1.68e-05,0.0,0 STARLINK-3814,1 52335U 22045E   23179.58406359  .00001680  00000-0  12363-3 0  9996,2 52335  53.2175 311.4325 0001124  94.5461 265.5660 15.08839523 66926,6917.882,95.438,540.524,538.969,0.0
52335.0,STARLINK-3814,PAYLOAD,2023-06-29 07:30:18,15.08831216,0.0001112,53.2174,308.1615,91.9198,268.1921,6.7817e-06,-1.8e-06,0.0,0 STARLINK-3814,1 52335U 22045E   23180.31270854 -.00000180  00000-0  67817-5 0  9999,2 52335  53.2174 308.1615 0001112  91.9198 268.1921 15.08831216 67038,6917.907,95.438,540.542,539.003,0.0
52335.0,STARLINK-3814,PAYLOAD,2023-06-29 15:27:13,15.08842976,0.000119,53.2176,306.6745,100.9888,259.1237,0.00012892,1.765e-05,0.0,0 STARLINK-3814,1 52335U 22045E   23180.64390237  .00001765  00000-0  12892-3 0  9993,2 52335  53.2176 306.6745 0001190 100.9888 259.1237 15.08842976 67080,6917.871,95.437,540.56,538.913,0.0
52335.0,STARLINK-3814,PAYLOAD,2023-06-30 15:18:00,15.0883769,0.0001093,53.2189,302.2165,101.9667,258.1447,7.3837e-05,8.87e-06,0.0,0 STARLINK-3814,1 52335U 22045E   23181.63750645  .00000887  00000-0  73837-4 0  9997,2 52335  53.2189 302.2165 0001093 101.9667 258.1447 15.08837690 67236,6917.887,95.438,540.509,538.996,0.0
52335.0,STARLINK-3814,PAYLOAD,2023-07-01 16:44:11,15.08837731,0.0001022,53.2187,297.4589,90.6031,269.5078,4.2862e-05,3.94e-06,0.0,0 STARLINK-3814,1 52335U 22045E   23182.69735037  .00000394  00000-0  42862-4 0  9999,2 52335  53.2187 297.4589 0001022  90.6031 269.5078 15.08837731 67399,6917.887,95.438,540.459,539.045,0.0
52335.0,STARLINK-3814,PAYLOAD,2023-07-02 00:41:04,15.08868561,0.0001287,53.2187,295.9721,92.1348,267.9792,0.00025327,3.748e-05,0.0,0 STARLINK-3814,1 52335U 22045E   23183.02852193  .00003748  00000-0  25327-3 0  9992,2 52335  53.2187 295.9721 0001287  92.1348 267.9792 15.08868561 67447,6917.793,95.436,540.548,538.768,0.0
52335.0,STARLINK-3814,PAYLOAD,2023-07-02 08:38:02,15.08828234,0.0001016,53.2181,294.4846,99.1187,260.992,-1.9512e-05,-5.98e-06,0.0,0 STARLINK-3814,1 52335U 22045E   23183.35975333 -.00000598  00000-0 -19512-4 0  9992,2 52335  53.2181 294.4846 0001016  99.1187 260.9920 15.08828234 67495,6917.916,95.438,540.484,539.078,0.0
52335.0,STARLINK-3814,PAYLOAD,2023-07-02 14:59:34,15.08835657,0.0001153,53.218,293.2947,93.7753,266.3371,2.1897e-05,6.1e-07,0.0,0 STARLINK-3814,1 52335U 22045E   23183.62470887  .00000061  00000-0  21897-4 0  9998,2 52335  53.2180 293.2947 0001153  93.7753 266.3371 15.08835657 67536,6917.894,95.438,540.556,538.961,0.0
52335.0,STARLINK-3814,PAYLOAD,2023-07-03 13:14:58,15.08843598,0.0001082,53.2175,289.13,98.8519,261.2596,9.0269e-05,1.149e-05,0.0,0 STARLINK-3814,1 52335U 22045E   23184.55206295  .00001149  00000-0  90269-4 0  9998,2 52335  53.2175 289.1300 0001082  98.8519 261.2596 15.08843598 67675,6917.869,95.437,540.483,538.986,0.0
